[{"OBJECT_NAME":"FENGYUN 1C DEB","OBJECT_ID":"1999-025BVP","EPOCH":"2023-09-13T19:43:50.835360","MEAN_MOTION":14.30227776,"ECCENTRICITY":0.0234107,"INCLINATION":99.0337,"RA_OF_ASC_NODE":101.3091,"ARG_OF_PERICENTER":350.7849,"MEAN_ANOMALY":8.9072,"EPHEMERIS_TYPE":0,"CLASSIFICATION_TYPE":"U","NORAD_CAT_ID":31475,"ELEMENT_SET_NO":999,"REV_AT_EPOCH":84311,"BSTAR":0.00090847,"MEAN_MOTION_DOT":3.118e-5,"MEAN_MOTION_DDOT":0},{"OBJECT_NAME":"FENGYUN 1C DEB","OBJECT_ID":"1999-025BVQ","EPOCH":"2023-09-15T15:46:57.173952","MEAN_MOTION":14.14370202,"ECCENTRICITY":0.0056487,"INCLINATION":98.9575,"RA_OF_ASC_NODE":316.6387,"ARG_OF_PERICENTER":350.2804,"MEAN_ANOMALY":9.7271,"EPHEMERIS_TYPE":0,"CLASSIFICATION_TYPE":"U","NORAD_CAT_ID":31476,"ELEMENT_SET_NO":999,"REV_AT_EPOCH":84150,"BSTAR":0.0014501,"MEAN_MOTION_DOT":2.772e-5,"MEAN_MOTION_DDOT":0},{"OBJECT_NAME":"FENGYUN 1C DEB","OBJECT_ID":"1999-025BVR","EPOCH":"2023-09-15T10:52:46.996608","MEAN_MOTION":14.01844727,"ECCENTRICITY":0.0111128,"INCLINATION":98.8412,"RA_OF_ASC_NODE":259.3753,"ARG_OF_PERICENTER":150.9473,"MEAN_ANOMALY":209.7939,"EPHEMERIS_TYPE":0,"CLASSIFICATION_TYPE":"U","NORAD_CAT_ID":31477,"ELEMENT_SET_NO":999,"REV_AT_EPOCH":83922,"BSTAR":0.00021641,"MEAN_MOTION_DOT":3.05e-6,"MEAN_MOTION_DDOT":0},{"OBJECT_NAME":"FENGYUN 1C DEB","OBJECT_ID":"1999-025BVS","EPOCH":"2023-09-13T13:07:47.490816","MEAN_MOTION":14.57790117,"ECCENTRICITY":0.0024246,"INCLINATION":102.5768,"RA_OF_ASC_NODE":113.3406,"ARG_OF_PERICENTER":25.1075,"MEAN_ANOMALY":5.3846,"EPHEMERIS_TYPE":0,"CLASSIFICATION_TYPE":"U","NORAD_CAT_ID":31478,"ELEMENT_SET_NO":999,"REV_AT_EPOCH":85409,"BSTAR":0.0080041,"MEAN_MOTION_DOT":0.00036892,"MEAN_MOTION_DDOT":0},{"OBJECT_NAME":"FENGYUN 1C DEB","OBJECT_ID":"1999-025BVU","EPOCH":"2023-09-15T18:28:46.502688","MEAN_MOTION":13.73985904,"ECCENTRICITY":0.0396155,"INCLINATION":98.3538,"RA_OF_ASC_NODE":189.7533,"ARG_OF_PERICENTER":306.3526,"MEAN_ANOMALY":50.1668,"EPHEMERIS_TYPE":0,"CLASSIFICATION_TYPE":"U","NORAD_CAT_ID":31480,"ELEMENT_SET_NO":999,"REV_AT_EPOCH":82165,"BSTAR":0.0061702,"MEAN_MOTION_DOT":0.00010202,"MEAN_MOTION_DDOT":0},{"OBJECT_NAME":"FENGYUN 1C DEB","OBJECT_ID":"1999-025BVW","EPOCH":"2023-09-15T12:36:44.141760","MEAN_MOTION":14.29912819,"ECCENTRICITY":0.0097103,"INCLINATION":98.4097,"RA_OF_ASC_NODE":276.9831,"ARG_OF_PERICENTER":194.279,"MEAN_ANOMALY":319.6209,"EPHEMERIS_TYPE":0,"CLASSIFICATION_TYPE":"U","NORAD_CAT_ID":31482,"ELEMENT_SET_NO":999,"REV_AT_EPOCH":85398,"BSTAR":0.00068154,"MEAN_MOTION_DOT":1.805e-5,"MEAN_MOTION_DDOT":0},{"OBJECT_NAME":"FENGYUN 1C DEB","OBJECT_ID":"1999-025BVX","EPOCH":"2023-09-15T11:07:50.377728","MEAN_MOTION":14.01366484,"ECCENTRICITY":0.0148549,"INCLINATION":102.5216,"RA_OF_ASC_NODE":244.0214,"ARG_OF_PERICENTER":63.7071,"MEAN_ANOMALY":85.5957,"EPHEMERIS_TYPE":0,"CLASSIFICATION_TYPE":"U","NORAD_CAT_ID":31483,"ELEMENT_SET_NO":999,"REV_AT_EPOCH":83171,"BSTAR":0.0030493,"MEAN_MOTION_DOT":4.994e-5,"MEAN_MOTION_DDOT":0},{"OBJECT_NAME":"FENGYUN 1C DEB","OBJECT_ID":"1999-025BVY","EPOCH":"2023-09-13T22:42:18.856512","MEAN_MOTION":14.14031724,"ECCENTRICITY":0.0147125,"INCLINATION":101.8242,"RA_OF_ASC_NODE":251.6168,"ARG_OF_PERICENTER":141.5206,"MEAN_ANOMALY":219.6556,"EPHEMERIS_TYPE":0,"CLASSIFICATION_TYPE":"U","NORAD_CAT_ID":31484,"ELEMENT_SET_NO":999,"REV_AT_EPOCH":84163,"BSTAR":0.004816,"MEAN_MOTION_DOT":0.00010105,"MEAN_MOTION_DDOT":0},{"OBJECT_NAME":"FENGYUN 1C DEB","OBJECT_ID":"1999-025BVZ","EPOCH":"2023-09-14T19:07:22.293984","MEAN_MOTION":13.3134251,"ECCENTRICITY":0.0483297,"INCLINATION":102.7208,"RA_OF_ASC_NODE":232.1281,"ARG_OF_PERICENTER":279.1196,"MEAN_ANOMALY":75.5557,"EPHEMERIS_TYPE":0,"CLASSIFICATION_TYPE":"U","NORAD_CAT_ID":31485,"ELEMENT_SET_NO":999,"REV_AT_EPOCH":79654,"BSTAR":0.0019879,"MEAN_MOTION_DOT":1.752e-5,"MEAN_MOTION_DDOT":0},{"OBJECT_NAME":"FENGYUN 1C DEB","OBJECT_ID":"1999-025BWA","EPOCH":"2023-09-15T14:04:50.839392","MEAN_MOTION":14.38401536,"ECCENTRICITY":0.0019041,"INCLINATION":102.2677,"RA_OF_ASC_NODE":126.1049,"ARG_OF_PERICENTER":250.742,"MEAN_ANOMALY":109.1693,"EPHEMERIS_TYPE":0,"CLASSIFICATION_TYPE":"U","NORAD_CAT_ID":31486,"ELEMENT_SET_NO":999,"REV_AT_EPOCH":84955,"BSTAR":0.0026816,"MEAN_MOTION_DOT":8.13e-5,"MEAN_MOTION_DDOT":0},{"OBJECT_NAME":"FENGYUN 1C DEB","OBJECT_ID":"1999-025BWB","EPOCH":"2023-09-15T03:51:50.800032","MEAN_MOTION":13.91958789,"ECCENTRICITY":0.0127279,"INCLINATION":102.4178,"RA_OF_ASC_NODE":135.6921,"ARG_OF_PERICENTER":114.3252,"MEAN_ANOMALY":38.3136,"EPHEMERIS_TYPE":0,"CLASSIFICATION_TYPE":"U","NORAD_CAT_ID":31487,"ELEMENT_SET_NO":999,"REV_AT_EPOCH":83076,"BSTAR":0.0015564,"MEAN_MOTION_DOT":2.052e-5,"MEAN_MOTION_DDOT":0},{"OBJECT_NAME":"FENGYUN 1C DEB","OBJECT_ID":"1999-025BWC","EPOCH":"2023-09-14T21:18:02.986848","MEAN_MOTION":14.59536656,"ECCENTRICITY":0.0061567,"INCLINATION":102.6677,"RA_OF_ASC_NODE":143.3939,"ARG_OF_PERICENTER":310.7869,"MEAN_ANOMALY":48.7982,"EPHEMERIS_TYPE":0,"CLASSIFICATION_TYPE":"U","NORAD_CAT_ID":31488,"ELEMENT_SET_NO":999,"REV_AT_EPOCH":85476,"BSTAR":0.0046699,"MEAN_MOTION_DOT":0.00022772,"MEAN_MOTION_DDOT":0},{"OBJECT_NAME":"FENGYUN 1C DEB","OBJECT_ID":"1999-025BWE","EPOCH":"2023-09-15T13:45:22.833216","MEAN_MOTION":14.09038403,"ECCENTRICITY":0.0060669,"INCLINATION":99.3447,"RA_OF_ASC_NODE":122.5413,"ARG_OF_PERICENTER":34.7825,"MEAN_ANOMALY":325.7286,"EPHEMERIS_TYPE":0,"CLASSIFICATION_TYPE":"U","NORAD_CAT_ID":31491,"ELEMENT_SET_NO":999,"REV_AT_EPOCH":52158,"BSTAR":0.0015624,"MEAN_MOTION_DOT":2.707e-5,"MEAN_MOTION_DDOT":0},{"OBJECT_NAME":"FENGYUN 1C DEB","OBJECT_ID":"1999-025BWF","EPOCH":"2023-09-15T13:01:34.338720","MEAN_MOTION":14.33050653,"ECCENTRICITY":0.0119505,"INCLINATION":98.8409,"RA_OF_ASC_NODE":12.5539,"ARG_OF_PERICENTER":317.9605,"MEAN_ANOMALY":41.2454,"EPHEMERIS_TYPE":0,"CLASSIFICATION_TYPE":"U","NORAD_CAT_ID":31492,"ELEMENT_SET_NO":999,"REV_AT_EPOCH":84660,"BSTAR":0.0022227,"MEAN_MOTION_DOT":6.55e-5,"MEAN_MOTION_DDOT":0},{"OBJECT_NAME":"FENGYUN 1C DEB","OBJECT_ID":"1999-025BWG","EPOCH":"2023-09-12T20:30:21.297888","MEAN_MOTION":13.89709231,"ECCENTRICITY":0.0121085,"INCLINATION":100.1574,"RA_OF_ASC_NODE":116.1098,"ARG_OF_PERICENTER":171.6918,"MEAN_ANOMALY":188.6279,"EPHEMERIS_TYPE":0,"CLASSIFICATION_TYPE":"U","NORAD_CAT_ID":31493,"ELEMENT_SET_NO":999,"REV_AT_EPOCH":82908,"BSTAR":0.00091834,"MEAN_MOTION_DOT":1.144e-5,"MEAN_MOTION_DDOT":0},{"OBJECT_NAME":"FENGYUN 1C DEB","OBJECT_ID":"1999-025BWJ","EPOCH":"2023-09-15T07:12:39.436416","MEAN_MOTION":14.20526407,"ECCENTRICITY":0.0030771,"INCLINATION":99.1813,"RA_OF_ASC_NODE":85.4106,"ARG_OF_PERICENTER":7.8329,"MEAN_ANOMALY":352.3321,"EPHEMERIS_TYPE":0,"CLASSIFICATION_TYPE":"U","NORAD_CAT_ID":31495,"ELEMENT_SET_NO":999,"REV_AT_EPOCH":51720,"BSTAR":0.0016754,"MEAN_MOTION_DOT":3.57e-5,"MEAN_MOTION_DDOT":0}]
