FENGYUN 1C DEB          
1 31475U 99025BVP 23256.82211615  .00003118  00000+0  90847-3 0  9992
2 31475  99.0337 101.3091 0234107 350.7849   8.9072 14.30227776843113
FENGYUN 1C DEB          
1 31476U 99025BVQ 23258.65760618  .00002772  00000+0  14501-2 0  9995
2 31476  98.9575 316.6387 0056487 350.2804   9.7271 14.14370202841500
FENGYUN 1C DEB          
1 31477U 99025BVR 23258.45332172  .00000305  00000+0  21641-3 0  9998
2 31477  98.8412 259.3753 0111128 150.9473 209.7939 14.01844727839224
FENGYUN 1C DEB          
1 31478U 99025BVS 23256.54707744  .00036892  00000+0  80041-2 0  9996
2 31478 102.5768 113.3406 0024246  25.1075   5.3846 14.57790117854094
FENGYUN 1C DEB          
1 31480U 99025BVU 23258.76998267  .00010202  00000+0  61702-2 0  9997
2 31480  98.3538 189.7533 0396155 306.3526  50.1668 13.73985904821651
FENGYUN 1C DEB          
1 31482U 99025BVW 23258.52551090  .00001805  00000+0  68154-3 0  9990
2 31482  98.4097 276.9831 0097103 194.2790 319.6209 14.29912819853984
FENGYUN 1C DEB          
1 31483U 99025BVX 23258.46377752  .00004994  00000+0  30493-2 0  9991
2 31483 102.5216 244.0214 0148549  63.7071  85.5957 14.01366484831716
FENGYUN 1C DEB          
1 31484U 99025BVY 23256.94605158  .00010105  00000+0  48160-2 0  9998
2 31484 101.8242 251.6168 0147125 141.5206 219.6556 14.14031724841631
FENGYUN 1C DEB          
1 31485U 99025BVZ 23257.79678581  .00001752  00000+0  19879-2 0  9996
2 31485 102.7208 232.1281 0483297 279.1196  75.5557 13.31342510796548
FENGYUN 1C DEB          
1 31486U 99025BWA 23258.58669953  .00008130  00000+0  26816-2 0  9994
2 31486 102.2677 126.1049 0019041 250.7420 109.1693 14.38401536849552
FENGYUN 1C DEB          
1 31487U 99025BWB 23258.16100463  .00002052  00000+0  15564-2 0  9990
2 31487 102.4178 135.6921 0127279 114.3252  38.3136 13.91958789830769
FENGYUN 1C DEB          
1 31488U 99025BWC 23257.88753457  .00022772  00000+0  46699-2 0  9990
2 31488 102.6677 143.3939 0061567 310.7869  48.7982 14.59536656854764
FENGYUN 1C DEB          
1 31491U 99025BWE 23258.57318094  .00002707  00000+0  15624-2 0  9995
2 31491  99.3447 122.5413 0060669  34.7825 325.7286 14.09038403521586
FENGYUN 1C DEB          
1 31492U 99025BWF 23258.54275855  .00006550  00000+0  22227-2 0  9997
2 31492  98.8409  12.5539 0119505 317.9605  41.2454 14.33050653846600
FENGYUN 1C DEB          
1 31493U 99025BWG 23255.85441317  .00001144  00000+0  91834-3 0  9992
2 31493 100.1574 116.1098 0121085 171.6918 188.6279 13.89709231829087
FENGYUN 1C DEB          
1 31495U 99025BWJ 23258.30045644  .00003570  00000+0  16754-2 0  9992
2 31495  99.1813  85.4106 0030771   7.8329 352.3321 14.20526407517201
